{"type":"FeatureCollection","name":"Barcelona Eixample · Gran Via / Balmes","bbox":[2.164,41.3862,2.166,41.3877],"provenance":{"source":"© OpenStreetMap contributors","license":"ODbL 1.0","source_url":"https://www.openstreetmap.org/copyright","extraction_endpoint":"https://api.openstreetmap.org/api/0.6/map","extracted_at":"2026-07-26T09:24:00Z","query_bbox":"2.1640,41.3862,2.1660,41.3877","note":"A compact deterministic extract; radio and compute overlays are simulated."},"features":[{"type":"Feature","properties":{"osm_id":8380840,"kind":"road","name":"Gran Via de les Corts Catalanes","highway":"primary_link","building":null,"levels":3,"source":"OpenStreetMap"},"geometry":{"type":"LineString","coordinates":[[2.1642964,41.3861675],[2.1642699,41.3861883],[2.1642175,41.3862264],[2.1641153,41.3863103]]}},{"type":"Feature","properties":{"osm_id":68506253,"kind":"road","name":"Ronda de la Universitat","highway":"secondary","building":null,"levels":3,"source":"OpenStreetMap"},"geometry":{"type":"LineString","coordinates":[[2.1663094,41.3865457],[2.1661146,41.3864774],[2.1655332,41.3862634],[2.1653533,41.3861948],[2.1650749,41.3860917]]}},{"type":"Feature","properties":{"osm_id":237506945,"kind":"road","name":"Gran Via de les Corts Catalanes (lateral mar)","highway":"residential","building":null,"levels":3,"source":"OpenStreetMap"},"geometry":{"type":"LineString","coordinates":[[2.1642964,41.3861675],[2.1644249,41.3862669],[2.1652979,41.3869325],[2.1653474,41.3869702],[2.1655422,41.3871122]]}},{"type":"Feature","properties":{"osm_id":237506948,"kind":"road","name":"Gran Via de les Corts Catalanes (lateral muntanya)","highway":"service","building":null,"levels":3,"source":"OpenStreetMap"},"geometry":{"type":"LineString","coordinates":[[2.1656595,41.3877156],[2.1654349,41.3875517],[2.1653861,41.3875161],[2.1652383,41.3873354]]}},{"type":"Feature","properties":{"osm_id":237522641,"kind":"road","name":"Carrer de Balmes","highway":"secondary","building":null,"levels":3,"source":"OpenStreetMap"},"geometry":{"type":"LineString","coordinates":[[2.1655422,41.3871122],[2.1655972,41.3870728],[2.1657884,41.3869335]]}},{"type":"Feature","properties":{"osm_id":237522643,"kind":"road","name":"Gran Via de les Corts Catalanes (lateral mar)","highway":"residential","building":null,"levels":3,"source":"OpenStreetMap"},"geometry":{"type":"LineString","coordinates":[[2.1655422,41.3871122],[2.1657413,41.3872693],[2.1665754,41.3878957],[2.1668898,41.3881302],[2.1669212,41.3881536],[2.1670594,41.3882572],[2.1671508,41.3883004]]}},{"type":"Feature","properties":{"osm_id":237525159,"kind":"road","name":"Gran Via de les Corts Catalanes","highway":"primary","building":null,"levels":3,"source":"OpenStreetMap"},"geometry":{"type":"LineString","coordinates":[[2.1641153,41.3863103],[2.1642385,41.386403],[2.1651159,41.3870422],[2.1651835,41.3870914],[2.1653796,41.3872305]]}},{"type":"Feature","properties":{"osm_id":241726844,"kind":"building","name":null,"highway":null,"building":"apartments","levels":3,"source":"OpenStreetMap"},"geometry":{"type":"Polygon","coordinates":[[[2.1656117,41.3866179],[2.1655264,41.3866461],[2.165753,41.3868214],[2.1658177,41.3867727],[2.1656117,41.3866179]]]}},{"type":"Feature","properties":{"osm_id":241726845,"kind":"building","name":null,"highway":null,"building":"apartments","levels":3,"source":"OpenStreetMap"},"geometry":{"type":"Polygon","coordinates":[[[2.16499,41.3861987],[2.1647643,41.3861135],[2.1646659,41.3861879],[2.1647643,41.3862647],[2.1647502,41.3862752],[2.1648548,41.3863558],[2.1648707,41.3863676],[2.1649035,41.3863454],[2.16499,41.3861987]]]}},{"type":"Feature","properties":{"osm_id":241726846,"kind":"building","name":null,"highway":null,"building":"apartments","levels":3,"source":"OpenStreetMap"},"geometry":{"type":"Polygon","coordinates":[[[2.1657103,41.3864695],[2.1655263,41.3864005],[2.1653943,41.3866033],[2.1653621,41.3866272],[2.1654202,41.3866764],[2.1655264,41.3866461],[2.1656117,41.3866179],[2.1657103,41.3864695]]]}},{"type":"Feature","properties":{"osm_id":241726847,"kind":"building","name":null,"highway":null,"building":"apartments","levels":3,"source":"OpenStreetMap"},"geometry":{"type":"Polygon","coordinates":[[[2.1655264,41.3866461],[2.1654202,41.3866764],[2.1654521,41.3866985],[2.1656823,41.3868738],[2.165753,41.3868214],[2.1655264,41.3866461]]]}},{"type":"Feature","properties":{"osm_id":241726848,"kind":"building","name":null,"highway":null,"building":"apartments","levels":3,"source":"OpenStreetMap"},"geometry":{"type":"Polygon","coordinates":[[[2.1658977,41.3865401],[2.1657103,41.3864695],[2.1656117,41.3866179],[2.1658977,41.3865401]]]}},{"type":"Feature","properties":{"osm_id":241726849,"kind":"building","name":null,"highway":null,"building":"apartments","levels":3,"source":"OpenStreetMap"},"geometry":{"type":"Polygon","coordinates":[[[2.1654521,41.3866985],[2.1653682,41.3869174],[2.1653771,41.3869226],[2.1653876,41.386926],[2.1655978,41.3869268],[2.165619,41.3869206],[2.1656823,41.3868738],[2.1654521,41.3866985]]]}},{"type":"Feature","properties":{"osm_id":241726850,"kind":"building","name":null,"highway":null,"building":"apartments","levels":3,"source":"OpenStreetMap"},"geometry":{"type":"Polygon","coordinates":[[[2.1651349,41.3862527],[2.16499,41.3861987],[2.1649035,41.3863454],[2.1650169,41.3864059],[2.1650305,41.386413],[2.1651349,41.3862527]]]}},{"type":"Feature","properties":{"osm_id":241726851,"kind":"building","name":null,"highway":null,"building":"apartments","levels":3,"source":"OpenStreetMap"},"geometry":{"type":"Polygon","coordinates":[[[2.1652753,41.3863057],[2.165203,41.3862785],[2.1651349,41.3862527],[2.1650305,41.386413],[2.1651614,41.3864815],[2.1652753,41.3863057]]]}},{"type":"Feature","properties":{"osm_id":241726852,"kind":"building","name":null,"highway":null,"building":"apartments","levels":6,"source":"OpenStreetMap"},"geometry":{"type":"Polygon","coordinates":[[[2.1646659,41.3861879],[2.1645299,41.3862898],[2.1647208,41.3864344],[2.1648548,41.3863558],[2.1647502,41.3862752],[2.1647643,41.3862647],[2.1646659,41.3861879]]]}},{"type":"Feature","properties":{"osm_id":241726853,"kind":"building","name":null,"highway":null,"building":"apartments","levels":3,"source":"OpenStreetMap"},"geometry":{"type":"Polygon","coordinates":[[[2.1649035,41.3863454],[2.1648707,41.3863676],[2.1648548,41.3863558],[2.1647208,41.3864344],[2.1648432,41.3865271],[2.1650169,41.3864059],[2.1649035,41.3863454]]]}},{"type":"Feature","properties":{"osm_id":241726854,"kind":"building","name":null,"highway":null,"building":"apartments","levels":3,"source":"OpenStreetMap"},"geometry":{"type":"Polygon","coordinates":[[[2.1650305,41.386413],[2.1650169,41.3864059],[2.1648432,41.3865271],[2.1649668,41.3866198],[2.1651614,41.3864815],[2.1650305,41.386413]]]}},{"type":"Feature","properties":{"osm_id":241726855,"kind":"building","name":null,"highway":null,"building":"apartments","levels":3,"source":"OpenStreetMap"},"geometry":{"type":"Polygon","coordinates":[[[2.1652798,41.3865431],[2.1651614,41.3864815],[2.1649668,41.3866198],[2.1650655,41.3866942],[2.1652798,41.3865431]]]}},{"type":"Feature","properties":{"osm_id":241726856,"kind":"building","name":null,"highway":null,"building":"apartments","levels":3,"source":"OpenStreetMap"},"geometry":{"type":"Polygon","coordinates":[[[2.1652798,41.3865431],[2.1650655,41.3866942],[2.1651635,41.3867666],[2.1653621,41.3866272],[2.1653943,41.3866033],[2.1652798,41.3865431]]]}},{"type":"Feature","properties":{"osm_id":241726857,"kind":"building","name":null,"highway":null,"building":"apartments","levels":7,"source":"OpenStreetMap"},"geometry":{"type":"Polygon","coordinates":[[[2.1654202,41.3866764],[2.1653621,41.3866272],[2.1651635,41.3867666],[2.1652173,41.3868068],[2.1652583,41.386837],[2.1654521,41.3866985],[2.1654202,41.3866764]]]}},{"type":"Feature","properties":{"osm_id":241726858,"kind":"building","name":null,"highway":null,"building":"apartments","levels":3,"source":"OpenStreetMap"},"geometry":{"type":"Polygon","coordinates":[[[2.1652753,41.3863057],[2.1651614,41.3864815],[2.1652798,41.3865431],[2.1654012,41.3863535],[2.1652753,41.3863057]]]}},{"type":"Feature","properties":{"osm_id":241726859,"kind":"building","name":null,"highway":null,"building":"apartments","levels":3,"source":"OpenStreetMap"},"geometry":{"type":"Polygon","coordinates":[[[2.1658177,41.3867727],[2.1659326,41.3866854],[2.1658977,41.3865401],[2.1656117,41.3866179],[2.1658177,41.3867727]]]}},{"type":"Feature","properties":{"osm_id":241726860,"kind":"building","name":null,"highway":null,"building":"apartments","levels":3,"source":"OpenStreetMap"},"geometry":{"type":"Polygon","coordinates":[[[2.1654012,41.3863535],[2.1652798,41.3865431],[2.1653943,41.3866033],[2.1655263,41.3864005],[2.1654012,41.3863535]]]}},{"type":"Feature","properties":{"osm_id":242590265,"kind":"building","name":"Edifici Històric de la Universitat de Barcelona","highway":null,"building":"university","levels":3,"source":"OpenStreetMap"},"geometry":{"type":"Polygon","coordinates":[[[2.1635109,41.3867224],[2.1639127,41.3868396],[2.1640646,41.3867242],[2.1641133,41.3866146],[2.1641057,41.3866039],[2.1639553,41.3864975],[2.1639402,41.3864859],[2.163559,41.3866862],[2.1635109,41.3867224]]]}},{"type":"Feature","properties":{"osm_id":249405342,"kind":"building","name":null,"highway":null,"building":"hotel","levels":8,"source":"OpenStreetMap"},"geometry":{"type":"Polygon","coordinates":[[[2.1660315,41.3858908],[2.1656922,41.3859213],[2.1657107,41.3860372],[2.1656412,41.3861381],[2.1659904,41.3862684],[2.1661083,41.3860911],[2.1660604,41.3860846],[2.1660629,41.3860785],[2.1660315,41.3858908]]]}},{"type":"Feature","properties":{"osm_id":249407485,"kind":"building","name":"Institut Català de la Salut","highway":null,"building":"yes","levels":3,"source":"OpenStreetMap"},"geometry":{"type":"Polygon","coordinates":[[[2.1659025,41.3879741],[2.1657801,41.3878759],[2.1654398,41.3876204],[2.1653143,41.3875608],[2.1651701,41.3875562],[2.1651295,41.3875569],[2.1649205,41.3877124],[2.1651137,41.3879757],[2.1655351,41.3882647],[2.1659025,41.3879741]]]}},{"type":"Feature","properties":{"osm_id":249407583,"kind":"building","name":null,"highway":null,"building":"yes","levels":3,"source":"OpenStreetMap"},"geometry":{"type":"Polygon","coordinates":[[[2.1662573,41.38611],[2.1661083,41.3860911],[2.1659904,41.3862684],[2.1661584,41.3863311],[2.1662808,41.3861477],[2.1662982,41.3861217],[2.166258,41.3861143],[2.1662573,41.38611]]]}},{"type":"Feature","properties":{"osm_id":289451633,"kind":"road","name":null,"highway":"service","building":null,"levels":3,"source":"OpenStreetMap"},"geometry":{"type":"LineString","coordinates":[[2.165642,41.3858604],[2.165646,41.3859025],[2.1656689,41.3860511],[2.1655943,41.3861618],[2.1655332,41.3862634]]}},{"type":"Feature","properties":{"osm_id":316789522,"kind":"road","name":"Gran Via de les Corts Catalanes","highway":"footway","building":null,"levels":3,"source":"OpenStreetMap"},"geometry":{"type":"LineString","coordinates":[[2.1666371,41.3883609],[2.165505,41.3875022]]}},{"type":"Feature","properties":{"osm_id":324749175,"kind":"road","name":"Gran Via de les Corts Catalanes","highway":"footway","building":null,"levels":3,"source":"OpenStreetMap"},"geometry":{"type":"LineString","coordinates":[[2.1657238,41.3873548],[2.1668544,41.3882037]]}},{"type":"Feature","properties":{"osm_id":324749176,"kind":"road","name":"Gran Via de les Corts Catalanes","highway":"footway","building":null,"levels":3,"source":"OpenStreetMap"},"geometry":{"type":"LineString","coordinates":[[2.1653577,41.3875394],[2.1653861,41.3875161],[2.1654029,41.3875024],[2.1654171,41.3874912],[2.1654677,41.3874975],[2.165505,41.3875022],[2.1655956,41.3875132],[2.1656651,41.3874594],[2.1657279,41.3874111],[2.1657238,41.3873548],[2.1657166,41.387289]]}},{"type":"Feature","properties":{"osm_id":324749177,"kind":"road","name":"Gran Via de les Corts Catalanes","highway":"footway","building":null,"levels":3,"source":"OpenStreetMap"},"geometry":{"type":"LineString","coordinates":[[2.1650119,41.3872184],[2.1650649,41.3871779],[2.1650868,41.3871637],[2.1651835,41.3870914],[2.1652649,41.3870313],[2.1652817,41.3870188],[2.1653229,41.38699],[2.1653287,41.3869846],[2.1653474,41.3869702],[2.1653713,41.3869554]]}},{"type":"Feature","properties":{"osm_id":338583533,"kind":"building","name":null,"highway":null,"building":"apartments","levels":3,"source":"OpenStreetMap"},"geometry":{"type":"Polygon","coordinates":[[[2.1659418,41.3873474],[2.1660085,41.3874015],[2.1660581,41.3874343],[2.1661605,41.3873545],[2.166131,41.3873336],[2.1661628,41.3873095],[2.166191,41.3873304],[2.1662871,41.387258],[2.1662173,41.3872046],[2.1661379,41.3872416],[2.1660703,41.387273],[2.1660302,41.3872916],[2.1660179,41.3872973],[2.1659975,41.3873066],[2.1659418,41.3873474]]]}},{"type":"Feature","properties":{"osm_id":338583534,"kind":"building","name":null,"highway":null,"building":"apartments","levels":3,"source":"OpenStreetMap"},"geometry":{"type":"Polygon","coordinates":[[[2.1660199,41.3868771],[2.1659069,41.3869617],[2.1659904,41.3870242],[2.1660073,41.3870122],[2.1660288,41.387028],[2.1660119,41.3870403],[2.1660628,41.3870774],[2.1661171,41.387117],[2.1661437,41.3871364],[2.166309,41.387094],[2.1661246,41.3869556],[2.1661057,41.3869693],[2.1660851,41.3869536],[2.1661036,41.3869398],[2.1660199,41.3868771]]]}},{"type":"Feature","properties":{"osm_id":338583554,"kind":"building","name":null,"highway":null,"building":"apartments","levels":3,"source":"OpenStreetMap"},"geometry":{"type":"Polygon","coordinates":[[[2.1658097,41.3872487],[2.1659975,41.3873066],[2.1660232,41.3872866],[2.1660599,41.3872647],[2.1661182,41.3872276],[2.1662736,41.3871783],[2.1664553,41.3871644],[2.1663751,41.3870773],[2.166081,41.3871326],[2.1659978,41.3871869],[2.1659348,41.3872192],[2.1658097,41.3872487]]]}},{"type":"Feature","properties":{"osm_id":338583556,"kind":"building","name":null,"highway":null,"building":"apartments","levels":3,"source":"OpenStreetMap"},"geometry":{"type":"Polygon","coordinates":[[[2.1658053,41.3870419],[2.1657934,41.387047],[2.1657877,41.3870537],[2.1657873,41.3870627],[2.1657914,41.3870698],[2.165788,41.3872156],[2.1657875,41.3872263],[2.165794,41.3872363],[2.1658064,41.3872399],[2.165902,41.3872102],[2.1659481,41.387191],[2.1660005,41.3871437],[2.1660343,41.387098],[2.1659904,41.3870242],[2.1658053,41.3870419]]]}},{"type":"Feature","properties":{"osm_id":353176456,"kind":"road","name":"Gran Via de les Corts Catalanes","highway":"footway","building":null,"levels":3,"source":"OpenStreetMap"},"geometry":{"type":"LineString","coordinates":[[2.164443,41.3862523],[2.1644249,41.3862669],[2.1644043,41.3862834],[2.1643946,41.3862898],[2.1643483,41.386322],[2.1643118,41.3863489],[2.1642385,41.386403],[2.1641572,41.3864644],[2.1641333,41.3864798],[2.1640736,41.3865244]]}},{"type":"Feature","properties":{"osm_id":483469233,"kind":"road","name":"Gran Via de les Corts Catalanes","highway":"primary","building":null,"levels":3,"source":"OpenStreetMap"},"geometry":{"type":"LineString","coordinates":[[2.1653796,41.3872305],[2.1656651,41.3874594],[2.1660716,41.387774]]}},{"type":"Feature","properties":{"osm_id":491443474,"kind":"road","name":"Carrer de Balmes","highway":"secondary","building":null,"levels":3,"source":"OpenStreetMap"},"geometry":{"type":"LineString","coordinates":[[2.1653796,41.3872305],[2.1655032,41.3871405],[2.1655195,41.3871297],[2.1655422,41.3871122]]}},{"type":"Feature","properties":{"osm_id":527376547,"kind":"road","name":"Gran Via de les Corts Catalanes","highway":"primary_link","building":null,"levels":3,"source":"OpenStreetMap"},"geometry":{"type":"LineString","coordinates":[[2.1641153,41.3863103],[2.164038,41.3863718],[2.1640146,41.3863884]]}},{"type":"Feature","properties":{"osm_id":532570625,"kind":"road","name":"Gran Via de les Corts Catalanes","highway":"footway","building":null,"levels":3,"source":"OpenStreetMap"},"geometry":{"type":"LineString","coordinates":[[2.1630485,41.3857661],[2.1638218,41.3863381],[2.1640736,41.3865244],[2.1650119,41.3872184],[2.1650129,41.387344],[2.1650128,41.3874265]]}},{"type":"Feature","properties":{"osm_id":532696021,"kind":"road","name":"Gran Via de les Corts Catalanes","highway":"footway","building":null,"levels":3,"source":"OpenStreetMap"},"geometry":{"type":"LineString","coordinates":[[2.1656635,41.3871301],[2.1657725,41.3872442],[2.1662538,41.3876115],[2.166604,41.3878743],[2.1668164,41.3880336],[2.1669434,41.3881373],[2.1672015,41.3881774],[2.1672642,41.3882193]]}},{"type":"Feature","properties":{"osm_id":545030293,"kind":"road","name":"Gran Via de les Corts Catalanes","highway":"footway","building":null,"levels":3,"source":"OpenStreetMap"},"geometry":{"type":"LineString","coordinates":[[2.1643118,41.3863489],[2.1642554,41.3862977],[2.16428,41.3862697],[2.1643215,41.3862473],[2.1643946,41.3862898],[2.1653395,41.3870178],[2.1652649,41.3870313],[2.1651382,41.3869682],[2.1643118,41.3863489]]}},{"type":"Feature","properties":{"osm_id":545030298,"kind":"road","name":"Gran Via de les Corts Catalanes","highway":"primary","building":null,"levels":3,"source":"OpenStreetMap"},"geometry":{"type":"LineString","coordinates":[[2.1639811,41.3862089],[2.1641153,41.3863103]]}},{"type":"Feature","properties":{"osm_id":545038939,"kind":"road","name":"Gran Via de les Corts Catalanes","highway":"footway","building":null,"levels":3,"source":"OpenStreetMap"},"geometry":{"type":"LineString","coordinates":[[2.1656814,41.3873754],[2.1656419,41.3873074],[2.1656494,41.3872664],[2.1656794,41.3872604],[2.1669073,41.3882009],[2.1668624,41.3882464],[2.1667856,41.3882102],[2.1656814,41.3873754]]}},{"type":"Feature","properties":{"osm_id":545038940,"kind":"road","name":"Gran Via de les Corts Catalanes","highway":"footway","building":null,"levels":3,"source":"OpenStreetMap"},"geometry":{"type":"LineString","coordinates":[[2.1653941,41.3874716],[2.1654495,41.3874457],[2.1655224,41.3874609],[2.1666815,41.3883285],[2.1666976,41.3883909],[2.1666363,41.3884045],[2.1653941,41.3874716]]}},{"type":"Feature","properties":{"osm_id":545747640,"kind":"road","name":"Gran Via de les Corts Catalanes (lateral muntanya)","highway":"service","building":null,"levels":3,"source":"OpenStreetMap"},"geometry":{"type":"LineString","coordinates":[[2.1640146,41.3863884],[2.1638833,41.3862893],[2.1633768,41.385906]]}},{"type":"Feature","properties":{"osm_id":550611697,"kind":"road","name":"Gran Via de les Corts Catalanes (lateral muntanya)","highway":"service","building":null,"levels":3,"source":"OpenStreetMap"},"geometry":{"type":"LineString","coordinates":[[2.1650649,41.3871779],[2.1641729,41.3865105],[2.1641333,41.3864798],[2.1640146,41.3863884]]}},{"type":"Feature","properties":{"osm_id":550620360,"kind":"road","name":"Gran Via de les Corts Catalanes (lateral muntanya)","highway":"service","building":null,"levels":3,"source":"OpenStreetMap"},"geometry":{"type":"LineString","coordinates":[[2.1652383,41.3873354],[2.1651754,41.3872714],[2.1650649,41.3871779]]}},{"type":"Feature","properties":{"osm_id":550620361,"kind":"road","name":"Carrer de Balmes","highway":"secondary","building":null,"levels":3,"source":"OpenStreetMap"},"geometry":{"type":"LineString","coordinates":[[2.1652383,41.3873354],[2.1652595,41.3873184],[2.1653796,41.3872305]]}},{"type":"Feature","properties":{"osm_id":682820223,"kind":"road","name":null,"highway":"service","building":null,"levels":3,"source":"OpenStreetMap"},"geometry":{"type":"LineString","coordinates":[[2.1651716,41.3873856],[2.1651276,41.3873557],[2.1650129,41.387344],[2.1649569,41.3873383],[2.1648821,41.3873306],[2.1648199,41.3873242]]}},{"type":"Feature","properties":{"osm_id":682820224,"kind":"road","name":null,"highway":"service","building":null,"levels":3,"source":"OpenStreetMap"},"geometry":{"type":"LineString","coordinates":[[2.1648199,41.3873242],[2.1646436,41.387174],[2.1644247,41.387353],[2.1644091,41.3873657],[2.1643565,41.3873571],[2.1643133,41.3873903],[2.1642785,41.3873799],[2.1642343,41.3874023],[2.1641965,41.3873967],[2.1640965,41.3874591],[2.1640797,41.3874724],[2.1640326,41.3875127]]}},{"type":"Feature","properties":{"osm_id":682820225,"kind":"road","name":null,"highway":"service","building":null,"levels":3,"source":"OpenStreetMap"},"geometry":{"type":"LineString","coordinates":[[2.1646436,41.387174],[2.1645801,41.3871417],[2.1645376,41.3871489],[2.1643793,41.3872728]]}},{"type":"Feature","properties":{"osm_id":746505021,"kind":"road","name":"Carrer de Balmes","highway":"footway","building":null,"levels":3,"source":"OpenStreetMap"},"geometry":{"type":"LineString","coordinates":[[2.165143,41.3875271],[2.1650676,41.3874658],[2.1650128,41.3874265]]}},{"type":"Feature","properties":{"osm_id":766573357,"kind":"road","name":"Gran Via de les Corts Catalanes","highway":"footway","building":null,"levels":3,"source":"OpenStreetMap"},"geometry":{"type":"LineString","coordinates":[[2.1665807,41.388402],[2.1665618,41.3884183],[2.1663427,41.3882533],[2.1662024,41.388154],[2.1660645,41.3880581],[2.1653577,41.3875394],[2.165143,41.3875271]]}},{"type":"Feature","properties":{"osm_id":766573358,"kind":"road","name":"Carrer de Balmes","highway":"footway","building":null,"levels":3,"source":"OpenStreetMap"},"geometry":{"type":"LineString","coordinates":[[2.1654784,41.3869807],[2.1655972,41.3870728],[2.1656635,41.3871301]]}},{"type":"Feature","properties":{"osm_id":766573359,"kind":"road","name":"Gran Via de les Corts Catalanes","highway":"footway","building":null,"levels":3,"source":"OpenStreetMap"},"geometry":{"type":"LineString","coordinates":[[2.164443,41.3862523],[2.1649341,41.3866229],[2.1653713,41.3869554],[2.1653875,41.3869677],[2.1654784,41.3869807]]}},{"type":"Feature","properties":{"osm_id":766573360,"kind":"road","name":"Gran Via de les Corts Catalanes","highway":"footway","building":null,"levels":3,"source":"OpenStreetMap"},"geometry":{"type":"LineString","coordinates":[[2.1646685,41.3860861],[2.164443,41.3862523]]}},{"type":"Feature","properties":{"osm_id":881941576,"kind":"road","name":"Ronda de la Universitat","highway":"footway","building":null,"levels":3,"source":"OpenStreetMap"},"geometry":{"type":"LineString","coordinates":[[2.1662325,41.3864073],[2.1661146,41.3864774],[2.1659911,41.3865579]]}},{"type":"Feature","properties":{"osm_id":881941577,"kind":"road","name":"Carrer de Balmes","highway":"footway","building":null,"levels":3,"source":"OpenStreetMap"},"geometry":{"type":"LineString","coordinates":[[2.1659861,41.3866025],[2.1661547,41.3866584],[2.1662333,41.3866849]]}},{"type":"Feature","properties":{"osm_id":881941700,"kind":"road","name":"Carrer de Balmes","highway":"footway","building":null,"levels":3,"source":"OpenStreetMap"},"geometry":{"type":"LineString","coordinates":[[2.1650128,41.3874265],[2.1642484,41.3879969]]}},{"type":"Feature","properties":{"osm_id":881941701,"kind":"road","name":"Carrer de Balmes","highway":"footway","building":null,"levels":3,"source":"OpenStreetMap"},"geometry":{"type":"LineString","coordinates":[[2.165143,41.3875271],[2.1644012,41.3881084]]}},{"type":"Feature","properties":{"osm_id":881941702,"kind":"road","name":"Carrer de Balmes","highway":"footway","building":null,"levels":3,"source":"OpenStreetMap"},"geometry":{"type":"LineString","coordinates":[[2.1663366,41.3866696],[2.1662333,41.3866849],[2.1656635,41.3871301]]}},{"type":"Feature","properties":{"osm_id":881941703,"kind":"road","name":"Carrer de Balmes","highway":"footway","building":null,"levels":3,"source":"OpenStreetMap"},"geometry":{"type":"LineString","coordinates":[[2.1659911,41.3865579],[2.1659861,41.3866025],[2.165982,41.3866674],[2.1655765,41.3869667],[2.1654784,41.3869807]]}},{"type":"Feature","properties":{"osm_id":886345752,"kind":"road","name":"Ronda de la Universitat","highway":"footway","building":null,"levels":3,"source":"OpenStreetMap"},"geometry":{"type":"LineString","coordinates":[[2.1659911,41.3865579],[2.1648372,41.3861235]]}},{"type":"Feature","properties":{"osm_id":890191183,"kind":"road","name":"Carrer de Balmes","highway":"secondary","building":null,"levels":3,"source":"OpenStreetMap"},"geometry":{"type":"LineString","coordinates":[[2.1657884,41.3869335],[2.1658843,41.3868616],[2.1661192,41.3866857],[2.1661547,41.3866584],[2.1663094,41.3865457]]}},{"type":"Feature","properties":{"osm_id":894746724,"kind":"road","name":"Gran Via de les Corts Catalanes","highway":"footway","building":null,"levels":3,"source":"OpenStreetMap"},"geometry":{"type":"LineString","coordinates":[[2.16428,41.3862697],[2.1643483,41.386322],[2.1652817,41.3870188]]}},{"type":"Feature","properties":{"osm_id":894746725,"kind":"road","name":"Gran Via de les Corts Catalanes","highway":"footway","building":null,"levels":3,"source":"OpenStreetMap"},"geometry":{"type":"LineString","coordinates":[[2.1641531,41.3861787],[2.1642175,41.3862264],[2.16428,41.3862697]]}},{"type":"Feature","properties":{"osm_id":1065817210,"kind":"road","name":null,"highway":"footway","building":null,"levels":3,"source":"OpenStreetMap"},"geometry":{"type":"LineString","coordinates":[[2.1642544,41.3872558],[2.164046,41.3874],[2.1638412,41.3875375]]}},{"type":"Feature","properties":{"osm_id":1065817214,"kind":"road","name":null,"highway":"footway","building":null,"levels":3,"source":"OpenStreetMap"},"geometry":{"type":"LineString","coordinates":[[2.1641038,41.3871563],[2.1640694,41.3870684],[2.163975,41.3870441]]}},{"type":"Feature","properties":{"osm_id":1065817215,"kind":"road","name":null,"highway":"footway","building":null,"levels":3,"source":"OpenStreetMap"},"geometry":{"type":"LineString","coordinates":[[2.1642228,41.38723],[2.1641494,41.3871816],[2.1641038,41.3871563]]}},{"type":"Feature","properties":{"osm_id":1065817222,"kind":"road","name":null,"highway":"footway","building":null,"levels":3,"source":"OpenStreetMap"},"geometry":{"type":"LineString","coordinates":[[2.1644247,41.387353],[2.1642544,41.3872558],[2.1642228,41.38723]]}},{"type":"Feature","properties":{"osm_id":1110435375,"kind":"road","name":"Gran Via de les Corts Catalanes","highway":"cycleway","building":null,"levels":3,"source":"OpenStreetMap"},"geometry":{"type":"LineString","coordinates":[[2.1652172,41.3872613],[2.1650868,41.3871637],[2.1641572,41.3864644],[2.1640513,41.3863814]]}},{"type":"Feature","properties":{"osm_id":1318002263,"kind":"road","name":"Gran Via de les Corts Catalanes","highway":"cycleway","building":null,"levels":3,"source":"OpenStreetMap"},"geometry":{"type":"LineString","coordinates":[[2.1653794,41.387424],[2.1652595,41.3873184],[2.1652172,41.3872613]]}},{"type":"Feature","properties":{"osm_id":1318002264,"kind":"road","name":"Gran Via de les Corts Catalanes","highway":"cycleway","building":null,"levels":3,"source":"OpenStreetMap"},"geometry":{"type":"LineString","coordinates":[[2.166668,41.3884035],[2.1666239,41.3883702],[2.1654677,41.3874975],[2.1654084,41.3874528],[2.1653794,41.387424]]}},{"type":"Feature","properties":{"osm_id":1318002265,"kind":"road","name":"Gran Via de les Corts Catalanes","highway":"cycleway","building":null,"levels":3,"source":"OpenStreetMap"},"geometry":{"type":"LineString","coordinates":[[2.1640513,41.3863814],[2.164038,41.3863718],[2.1640227,41.3863595]]}},{"type":"Feature","properties":{"osm_id":1318002266,"kind":"road","name":"Gran Via de les Corts Catalanes","highway":"cycleway","building":null,"levels":3,"source":"OpenStreetMap"},"geometry":{"type":"LineString","coordinates":[[2.1640227,41.3863595],[2.1639042,41.386272],[2.1632628,41.3857827],[2.1631377,41.3856928],[2.1631101,41.3856715]]}},{"type":"Feature","properties":{"osm_id":1325292396,"kind":"road","name":"Gran Via de les Corts Catalanes","highway":"cycleway","building":null,"levels":3,"source":"OpenStreetMap"},"geometry":{"type":"LineString","coordinates":[[2.1642039,41.3861367],[2.1642699,41.3861883],[2.1643351,41.3862336]]}},{"type":"Feature","properties":{"osm_id":1325395427,"kind":"road","name":"Gran Via de les Corts Catalanes","highway":"cycleway","building":null,"levels":3,"source":"OpenStreetMap"},"geometry":{"type":"LineString","coordinates":[[2.1654176,41.3870553],[2.1655195,41.3871297],[2.1655928,41.3871852]]}},{"type":"Feature","properties":{"osm_id":1325395428,"kind":"road","name":"Gran Via de les Corts Catalanes","highway":"cycleway","building":null,"levels":3,"source":"OpenStreetMap"},"geometry":{"type":"LineString","coordinates":[[2.1643351,41.3862336],[2.1644043,41.3862834],[2.1653287,41.3869846],[2.1654176,41.3870553]]}},{"type":"Feature","properties":{"osm_id":1325467360,"kind":"road","name":"Gran Via de les Corts Catalanes","highway":"cycleway","building":null,"levels":3,"source":"OpenStreetMap"},"geometry":{"type":"LineString","coordinates":[[2.1655928,41.3871852],[2.1657252,41.3872813],[2.1669057,41.3881662],[2.1670502,41.3882753]]}},{"type":"Feature","properties":{"osm_id":1325467361,"kind":"road","name":"Gran Via de les Corts Catalanes","highway":"footway","building":null,"levels":3,"source":"OpenStreetMap"},"geometry":{"type":"LineString","coordinates":[[2.1657166,41.387289],[2.1657252,41.3872813],[2.1657413,41.3872693],[2.1657725,41.3872442]]}},{"type":"Feature","properties":{"osm_id":1408687441,"kind":"road","name":"Carrer de Balmes","highway":"secondary","building":null,"levels":3,"source":"OpenStreetMap"},"geometry":{"type":"LineString","coordinates":[[2.1647589,41.3877039],[2.1650175,41.3875044],[2.1650676,41.3874658],[2.1651716,41.3873856]]}},{"type":"Feature","properties":{"osm_id":1535871448,"kind":"road","name":"Carrer de Balmes","highway":"secondary","building":null,"levels":3,"source":"OpenStreetMap"},"geometry":{"type":"LineString","coordinates":[[2.1651716,41.3873856],[2.1652383,41.3873354]]}}]}
